<?xml version="1.0" encoding="UTF-8"?>
<ndm xmlns:xsi="http://www.w3.org/2001/XMLSchema-instance" xsi:noNamespaceSchemaLocation="https://sanaregistry.org/r/ndmxml_unqualified/ndmxml-2.0.0-master-2.0.xsd">
<omm id="CCSDS_OMM_VERS" version="2.0">
<header><CREATION_DATE/><ORIGINATOR/></header><body><segment><metadata><OBJECT_NAME>ORBCOMM FM33 [-]</OBJECT_NAME><OBJECT_ID>1999-065D</OBJECT_ID><CENTER_NAME>EARTH</CENTER_NAME><REF_FRAME>TEME</REF_FRAME><TIME_SYSTEM>UTC</TIME_SYSTEM><MEAN_ELEMENT_THEORY>SGP4</MEAN_ELEMENT_THEORY></metadata><data><meanElements><EPOCH>2023-12-26T02:29:05.648640</EPOCH><MEAN_MOTION>14.37121056</MEAN_MOTION><ECCENTRICITY>.001024</ECCENTRICITY><INCLINATION>45.0301</INCLINATION><RA_OF_ASC_NODE>35.7409</RA_OF_ASC_NODE><ARG_OF_PERICENTER>237.7048</ARG_OF_PERICENTER><MEAN_ANOMALY>149.8752</MEAN_ANOMALY></meanElements><tleParameters><EPHEMERIS_TYPE>0</EPHEMERIS_TYPE><CLASSIFICATION_TYPE>U</CLASSIFICATION_TYPE><NORAD_CAT_ID>25983</NORAD_CAT_ID><ELEMENT_SET_NO>999</ELEMENT_SET_NO><REV_AT_EPOCH>25852</REV_AT_EPOCH><BSTAR>.62476E-3</BSTAR><MEAN_MOTION_DOT>.1733E-4</MEAN_MOTION_DOT><MEAN_MOTION_DDOT>0</MEAN_MOTION_DDOT></tleParameters></data></segment></body></omm>
<omm id="CCSDS_OMM_VERS" version="2.0">
<header><CREATION_DATE/><ORIGINATOR/></header><body><segment><metadata><OBJECT_NAME>ORBCOMM FM35 [+]</OBJECT_NAME><OBJECT_ID>1999-065F</OBJECT_ID><CENTER_NAME>EARTH</CENTER_NAME><REF_FRAME>TEME</REF_FRAME><TIME_SYSTEM>UTC</TIME_SYSTEM><MEAN_ELEMENT_THEORY>SGP4</MEAN_ELEMENT_THEORY></metadata><data><meanElements><EPOCH>2023-12-25T10:54:35.146944</EPOCH><MEAN_MOTION>14.34649008</MEAN_MOTION><ECCENTRICITY>.0004271</ECCENTRICITY><INCLINATION>45.0393</INCLINATION><RA_OF_ASC_NODE>124.2115</RA_OF_ASC_NODE><ARG_OF_PERICENTER>214.1832</ARG_OF_PERICENTER><MEAN_ANOMALY>145.8741</MEAN_ANOMALY></meanElements><tleParameters><EPHEMERIS_TYPE>0</EPHEMERIS_TYPE><CLASSIFICATION_TYPE>U</CLASSIFICATION_TYPE><NORAD_CAT_ID>25985</NORAD_CAT_ID><ELEMENT_SET_NO>999</ELEMENT_SET_NO><REV_AT_EPOCH>25721</REV_AT_EPOCH><BSTAR>.68394E-3</BSTAR><MEAN_MOTION_DOT>.1811E-4</MEAN_MOTION_DOT><MEAN_MOTION_DDOT>0</MEAN_MOTION_DDOT></tleParameters></data></segment></body></omm>
<omm id="CCSDS_OMM_VERS" version="2.0">
<header><CREATION_DATE/><ORIGINATOR/></header><body><segment><metadata><OBJECT_NAME>ORBCOMM FM34 [-]</OBJECT_NAME><OBJECT_ID>1999-065G</OBJECT_ID><CENTER_NAME>EARTH</CENTER_NAME><REF_FRAME>TEME</REF_FRAME><TIME_SYSTEM>UTC</TIME_SYSTEM><MEAN_ELEMENT_THEORY>SGP4</MEAN_ELEMENT_THEORY></metadata><data><meanElements><EPOCH>2023-12-25T11:46:38.934624</EPOCH><MEAN_MOTION>14.34604324</MEAN_MOTION><ECCENTRICITY>.0004649</ECCENTRICITY><INCLINATION>45.0385</INCLINATION><RA_OF_ASC_NODE>124.5384</RA_OF_ASC_NODE><ARG_OF_PERICENTER>169.6867</ARG_OF_PERICENTER><MEAN_ANOMALY>190.4076</MEAN_ANOMALY></meanElements><tleParameters><EPHEMERIS_TYPE>0</EPHEMERIS_TYPE><CLASSIFICATION_TYPE>U</CLASSIFICATION_TYPE><NORAD_CAT_ID>25986</NORAD_CAT_ID><ELEMENT_SET_NO>999</ELEMENT_SET_NO><REV_AT_EPOCH>25733</REV_AT_EPOCH><BSTAR>.69123E-3</BSTAR><MEAN_MOTION_DOT>.183E-4</MEAN_MOTION_DOT><MEAN_MOTION_DDOT>0</MEAN_MOTION_DDOT></tleParameters></data></segment></body></omm>
<omm id="CCSDS_OMM_VERS" version="2.0">
<header><CREATION_DATE/><ORIGINATOR/></header><body><segment><metadata><OBJECT_NAME>ORBCOMM FM38 [-]</OBJECT_NAME><OBJECT_ID>2008-031A</OBJECT_ID><CENTER_NAME>EARTH</CENTER_NAME><REF_FRAME>TEME</REF_FRAME><TIME_SYSTEM>UTC</TIME_SYSTEM><MEAN_ELEMENT_THEORY>SGP4</MEAN_ELEMENT_THEORY></metadata><data><meanElements><EPOCH>2023-12-25T23:38:06.512640</EPOCH><MEAN_MOTION>14.76637784</MEAN_MOTION><ECCENTRICITY>.0005849</ECCENTRICITY><INCLINATION>48.4427</INCLINATION><RA_OF_ASC_NODE>355.0182</RA_OF_ASC_NODE><ARG_OF_PERICENTER>255.8258</ARG_OF_PERICENTER><MEAN_ANOMALY>104.2006</MEAN_ANOMALY></meanElements><tleParameters><EPHEMERIS_TYPE>0</EPHEMERIS_TYPE><CLASSIFICATION_TYPE>U</CLASSIFICATION_TYPE><NORAD_CAT_ID>33060</NORAD_CAT_ID><ELEMENT_SET_NO>999</ELEMENT_SET_NO><REV_AT_EPOCH>83493</REV_AT_EPOCH><BSTAR>.47294E-3</BSTAR><MEAN_MOTION_DOT>.3135E-4</MEAN_MOTION_DOT><MEAN_MOTION_DDOT>0</MEAN_MOTION_DDOT></tleParameters></data></segment></body></omm>
<omm id="CCSDS_OMM_VERS" version="2.0">
<header><CREATION_DATE/><ORIGINATOR/></header><body><segment><metadata><OBJECT_NAME>ORBCOMM FM41 [-]</OBJECT_NAME><OBJECT_ID>2008-031B</OBJECT_ID><CENTER_NAME>EARTH</CENTER_NAME><REF_FRAME>TEME</REF_FRAME><TIME_SYSTEM>UTC</TIME_SYSTEM><MEAN_ELEMENT_THEORY>SGP4</MEAN_ELEMENT_THEORY></metadata><data><meanElements><EPOCH>2023-12-25T01:28:55.100640</EPOCH><MEAN_MOTION>14.76382020</MEAN_MOTION><ECCENTRICITY>.0004923</ECCENTRICITY><INCLINATION>48.4461</INCLINATION><RA_OF_ASC_NODE>5.6910</RA_OF_ASC_NODE><ARG_OF_PERICENTER>238.8913</ARG_OF_PERICENTER><MEAN_ANOMALY>137.7875</MEAN_ANOMALY></meanElements><tleParameters><EPHEMERIS_TYPE>0</EPHEMERIS_TYPE><CLASSIFICATION_TYPE>U</CLASSIFICATION_TYPE><NORAD_CAT_ID>33061</NORAD_CAT_ID><ELEMENT_SET_NO>999</ELEMENT_SET_NO><REV_AT_EPOCH>83431</REV_AT_EPOCH><BSTAR>.48369E-3</BSTAR><MEAN_MOTION_DOT>.3191E-4</MEAN_MOTION_DOT><MEAN_MOTION_DDOT>0</MEAN_MOTION_DDOT></tleParameters></data></segment></body></omm>
<omm id="CCSDS_OMM_VERS" version="2.0">
<header><CREATION_DATE/><ORIGINATOR/></header><body><segment><metadata><OBJECT_NAME>ORBCOMM FM29 [-]</OBJECT_NAME><OBJECT_ID>2008-031C</OBJECT_ID><CENTER_NAME>EARTH</CENTER_NAME><REF_FRAME>TEME</REF_FRAME><TIME_SYSTEM>UTC</TIME_SYSTEM><MEAN_ELEMENT_THEORY>SGP4</MEAN_ELEMENT_THEORY></metadata><data><meanElements><EPOCH>2023-12-26T01:26:21.405408</EPOCH><MEAN_MOTION>14.76280907</MEAN_MOTION><ECCENTRICITY>.0006801</ECCENTRICITY><INCLINATION>48.4410</INCLINATION><RA_OF_ASC_NODE>8.9807</RA_OF_ASC_NODE><ARG_OF_PERICENTER>239.7217</ARG_OF_PERICENTER><MEAN_ANOMALY>150.2622</MEAN_ANOMALY></meanElements><tleParameters><EPHEMERIS_TYPE>0</EPHEMERIS_TYPE><CLASSIFICATION_TYPE>U</CLASSIFICATION_TYPE><NORAD_CAT_ID>33062</NORAD_CAT_ID><ELEMENT_SET_NO>999</ELEMENT_SET_NO><REV_AT_EPOCH>83476</REV_AT_EPOCH><BSTAR>.48277E-3</BSTAR><MEAN_MOTION_DOT>.3177E-4</MEAN_MOTION_DOT><MEAN_MOTION_DDOT>0</MEAN_MOTION_DDOT></tleParameters></data></segment></body></omm>
<omm id="CCSDS_OMM_VERS" version="2.0">
<header><CREATION_DATE/><ORIGINATOR/></header><body><segment><metadata><OBJECT_NAME>ORBCOMM FM39 [-]</OBJECT_NAME><OBJECT_ID>2008-031D</OBJECT_ID><CENTER_NAME>EARTH</CENTER_NAME><REF_FRAME>TEME</REF_FRAME><TIME_SYSTEM>UTC</TIME_SYSTEM><MEAN_ELEMENT_THEORY>SGP4</MEAN_ELEMENT_THEORY></metadata><data><meanElements><EPOCH>2023-12-25T22:23:34.408032</EPOCH><MEAN_MOTION>14.75391807</MEAN_MOTION><ECCENTRICITY>.0007606</ECCENTRICITY><INCLINATION>48.4424</INCLINATION><RA_OF_ASC_NODE>29.1275</RA_OF_ASC_NODE><ARG_OF_PERICENTER>215.4385</ARG_OF_PERICENTER><MEAN_ANOMALY>144.6024</MEAN_ANOMALY></meanElements><tleParameters><EPHEMERIS_TYPE>0</EPHEMERIS_TYPE><CLASSIFICATION_TYPE>U</CLASSIFICATION_TYPE><NORAD_CAT_ID>33063</NORAD_CAT_ID><ELEMENT_SET_NO>999</ELEMENT_SET_NO><REV_AT_EPOCH>83448</REV_AT_EPOCH><BSTAR>.42626E-3</BSTAR><MEAN_MOTION_DOT>.2721E-4</MEAN_MOTION_DOT><MEAN_MOTION_DDOT>0</MEAN_MOTION_DDOT></tleParameters></data></segment></body></omm>

</ndm>
