ORBCOMM FM33 [-]        
1 25983U 99065D   23360.10353760  .00001733  00000+0  62476-3 0  9996
2 25983  45.0301  35.7409 0010240 237.7048 149.8752 14.37121056258526
ORBCOMM FM35 [+]        
1 25985U 99065F   23359.45457346  .00001811  00000+0  68394-3 0  9991
2 25985  45.0393 124.2115 0004271 214.1832 145.8741 14.34649008257212
ORBCOMM FM34 [-]        
1 25986U 99065G   23359.49072841  .00001830  00000+0  69123-3 0  9991
2 25986  45.0385 124.5384 0004649 169.6867 190.4076 14.34604324257338
ORBCOMM FM38 [-]        
1 33060U 08031A   23359.98479760  .00003135  00000+0  47294-3 0  9996
2 33060  48.4427 355.0182 0005849 255.8258 104.2006 14.76637784834931
ORBCOMM FM41 [-]        
1 33061U 08031B   23359.06174885  .00003191  00000+0  48369-3 0  9992
2 33061  48.4461   5.6910 0004923 238.8913 137.7875 14.76382020834315
ORBCOMM FM29 [-]        
1 33062U 08031C   23360.05996997  .00003177  00000+0  48277-3 0  9992
2 33062  48.4410   8.9807 0006801 239.7217 150.2622 14.76280907834765
ORBCOMM FM39 [-]        
1 33063U 08031D   23359.93303713  .00002721  00000+0  42626-3 0  9992
2 33063  48.4424  29.1275 0007606 215.4385 144.6024 14.75391807834489
